BEIDOU 3 (C01)          
1 36287U 10001A   21235.55450101 -.00000302  00000-0  00000-0 0  9998
2 36287   1.9779  49.0084 0006088  88.6042 174.4295  1.00269125 42527
BEIDOU 5 (C06)          
1 36828U 10036A   21236.58041117 -.00000146  00000-0  00000-0 0  9990
2 36828  54.1839 178.9658 0023238 183.6337 286.0649  1.00283517 40604
BEIDOU 6 (C04)          
1 37210U 10057A   21236.59285310 -.00000130  00000-0  00000-0 0  9998
2 37210   0.9540  54.0379 0006190 126.8536 165.6393  1.00270879 39658
BEIDOU 7 (C07)          
1 37256U 10068A   21236.65553079 -.00000181  00000-0  00000-0 0  9993
2 37256  50.7438 293.1916 0019900 183.8180 197.9692  1.00308665 39173
BEIDOU 8 (C08)          
1 37384U 11013A   21236.41123838 -.00000177  00000-0  00000-0 0  9991
2 37384  59.8665  57.2161 0054835 206.5570 335.9419  1.00287098 38042
BEIDOU 9 (C09)          
1 37763U 11038A   21236.33410532 -.00000084  00000-0  00000-0 0  9997
2 37763  54.4696 181.4151 0084401 226.8209 136.3314  1.00252114 37028
BEIDOU 10 (C10)         
1 37948U 11073A   21236.08330766 -.00000140  00000-0  00000-0 0  9996
2 37948  50.8457 292.8207 0078346 216.4080 309.6358  1.00278237 35777
BEIDOU 11 (C05)         
1 38091U 12008A   21236.60423470  .00000040  00000-0  00000-0 0  9996
2 38091   1.6946  69.4070 0005741 342.4420 197.4231  1.00271881 34856
BEIDOU 12 (C11)         
1 38250U 12018A   21236.27148409 -.00000113  00000-0  00000-0 0  9995
2 38250  56.7507   3.3751 0021425 243.8415 159.2797  1.86234326 63554
BEIDOU 13 (C12)         
1 38251U 12018B   21235.79787958 -.00000113  00000-0  00000-0 0  9990
2 38251  56.6731   2.7358 0012437 243.1197 246.8331  1.86234087 63542
BEIDOU 15 (C14)         
1 38775U 12050B   21236.64407580 -.00000011  00000-0  00000-0 0  9999
2 38775  55.2380 121.6857 0014097 324.6859 209.9914  1.86231882 60934
BEIDOU 16 (C02)         
1 38953U 12059A   21236.55633222 -.00000194  00000-0  00000-0 0  9992
2 38953   1.2574  83.9292 0010520 298.8494 234.6361  1.00270881 32427
BEIDOU 17 (C31)         
1 40549U 15019A   21236.08610163 -.00000153  00000-0  00000-0 0  9997
2 40549  52.3845 316.2092 0040710 191.0492 308.0749  1.00251362 23457
BEIDOU 18 (C57)         
1 40748U 15037A   21236.31707683 -.00000114  00000-0  00000-0 0  9995
2 40748  55.9320   1.7635 0002707  54.1634 333.7012  1.86233460 41388
BEIDOU 19 (C58)         
1 40749U 15037B   21236.56052363 -.00000114  00000-0  00000+0 0  9990
2 40749  55.9370   1.7451 0002132 324.0315   2.8569  1.86232131 41371
BEIDOU 20 (C18)         
1 40938U 15053A   21236.42286406 -.00000111  00000-0  00000-0 0  9998
2 40938  51.9587 279.2826 0048489 195.1718 106.9073  1.00268071 21725
BEIDOU IGSO-6 (C13)     
1 41434U 16021A   21236.47796024 -.00000128  00000-0  00000-0 0  9991
2 41434  57.6587  55.9237 0039152 210.4098 331.9305  1.00255964 19850
BEIDOU-2 G7 (C03)       
1 41586U 16037A   21236.55340391 -.00000372  00000-0  00000-0 0  9998
2 41586   1.8424  68.5409 0008288  17.7761 196.4877  1.00273088 19160
BEIDOU-3 M1 (C19)       
1 43001U 17069A   21236.42423387 -.00000010  00000-0  00000-0 0  9990
2 43001  55.3923 121.6530 0009576 295.6078 247.6326  1.86231898 25866
BEIDOU-3 M2 (C20)       
1 43002U 17069B   21236.35713089 -.00000010  00000-0  00000-0 0  9994
2 43002  55.3918 121.6918 0008395 319.2026 222.4207  1.86231443 25859
BEIDOU-3 M3 (C27)       
1 43107U 18003A   21236.42473185 -.00000115  00000-0  00000-0 0  9993
2 43107  55.3763   2.8103 0004843  65.1967 327.6554  1.86232537 24626
BEIDOU-3 M4 (C28)       
1 43108U 18003B   21236.44280765 -.00000115  00000-0  00000-0 0  9996
2 43108  55.3716   2.7982 0002834 220.5499 229.5994  1.86232556 24623
BEIDOU-3 M5 (C21)       
1 43207U 18018A   21235.68171962 -.00000010  00000-0  00000-0 0  9999
2 43207  55.3502 121.8025 0006232 343.8009  16.2553  1.86231779 23996
BEIDOU-3 M6 (C22)       
1 43208U 18018B   21236.28539359 -.00000010  00000-0  00000-0 0  9995
2 43208  55.3499 121.7850 0007620 309.4333  50.5781  1.86231477 24009
BEIDOU-3 M7 (C29)       
1 43245U 18029A   21236.41254808 -.00000115  00000-0  00000-0 0  9992
2 43245  55.3046   0.5979 0001132 128.8458 166.0760  1.86232699 23159
BEIDOU-3 M8 (C30)       
1 43246U 18029B   21236.44146722 -.00000115  00000-0  10000-3 0  9995
2 43246  55.3020   0.6276 0002979   2.5485 358.0052  1.86232999 23151
BEIDOU IGSO-7 (C16)     
1 43539U 18057A   21236.56536970 -.00000148  00000-0  00000-0 0  9994
2 43539  55.0629 178.3427 0038868 223.2141 244.8160  1.00248145 11533
BEIDOU-3 M9 (C23)       
1 43581U 18062A   21236.25851124  .00000013  00000-0  00000-0 0  9994
2 43581  54.3785 242.2698 0006237 266.8471 181.2822  1.86231884 20894
BEIDOU-3 M10 (C24)      
1 43582U 18062B   21236.05085650  .00000013  00000-0  00000-0 0  9996
2 43582  54.3772 242.2673 0004925 325.5538  74.7544  1.86232229 20894
BEIDOU-3 M11 (C25)      
1 43602U 18067A   21236.46692419  .00000014  00000-0  00000-0 0  9997
2 43602  54.4544 240.8407 0006565 349.3949  11.9714  1.86231655 20395
BEIDOU-3 M12 (C26)      
1 43603U 18067B   21236.25198791  .00000014  00000-0  00000-0 0  9999
2 43603  54.4512 240.8154 0004162 330.5054 157.2023  1.86231577 20402
BEIDOU-3 M13 (C32)      
1 43622U 18072A   21236.29032181 -.00000010  00000-0  00000-0 0  9997
2 43622  55.3155 121.3471 0006063 293.1879 250.2521  1.86232014 19910
BEIDOU-3 M14 (C33)      
1 43623U 18072B   21236.21601065 -.00000010  00000-0  00000-0 0  9993
2 43623  55.3182 121.3406 0004908 323.4418 260.4123  1.86232017 19915
BEIDOU-3 M15 (C34)      
1 43647U 18078A   21235.57629444 -.00000116  00000-0  10000-3 0  9995
2 43647  55.1989   0.8107 0005338   4.7268  45.4394  1.86232802 19411
BEIDOU-3 M16 (C35)      
1 43648U 18078B   21236.64846006 -.00000115  00000-0  00000-0 0  9995
2 43648  55.1945   0.7813 0003748  26.5804 290.7703  1.86232371 19441
BEIDOU-3 G1 (C59)       
1 43683U 18085A   21236.55933473 -.00000297  00000-0  00000-0 0  9998
2 43683   0.9629 218.3603 0004168  16.4856  79.5853  1.00272144 10430
BEIDOU-3 M17 (C36)      
1 43706U 18093A   21236.32835955  .00000013  00000-0  00000-0 0  9999
2 43706  54.4587 242.1304 0011778 269.6254  90.2480  1.86231974 18800
BEIDOU-3 M18 (C37)      
1 43707U 18093B   21236.41844245  .00000013  00000-0  00000-0 0  9992
2 43707  54.4583 242.1186 0009945 288.4425 222.7477  1.86232183 18796
BEIDOU-3 IGSO-1 (C38)   
1 44204U 19023A   21236.47103299 -.00000199  00000-0  00000-0 0  9998
2 44204  56.1221  56.1744 0020034 187.8004  12.6428  1.00275047  8734
BEIDOU-2 G8             
1 44231U 19027A   21236.60429439 -.00000265  00000-0  00000-0 0  9998
2 44231   0.2700  21.1544 0006519 172.9691 141.0482  1.00269870  8447
BEIDOU-3 IGSO-2 (C39)   
1 44337U 19035A   21236.17686891 -.00000163  00000-0  00000-0 0  9990
2 44337  55.0970 174.3882 0020098 184.6803 154.9855  1.00291941  8069
BEIDOU-3 M23 (C45)      
1 44542U 19061A   21236.26133642  .00000014  00000-0  10000-3 0  9996
2 44542  54.6839 242.2162 0009108 315.9987  42.6587  1.86231449 13043
BEIDOU-3 M24 (C46)      
1 44543U 19061B   21236.39102611  .00000014  00000-0  10000-3 0  9993
2 44543  54.6812 242.1820 0006775 299.6836  56.8727  1.86231761 13043
BEIDOU-3 IGSO-3         
1 44709U 19073A   21236.47295311 -.00000169  00000-0  00000-0 0  9997
2 44709  57.7370 299.4644 0020409 183.8333 137.4211  1.00296273  6822
BEIDOU-3 M21            
1 44793U 19078A   21235.60266061 -.00000116  00000-0  10000-3 0  9995
2 44793  55.0483   0.8677 0005454  13.4058   8.7867  1.86232231 11906
BEIDOU-3 M22            
1 44794U 19078B   21236.23363003 -.00000115  00000-0  00000-0 0  9995
2 44794  55.0212   0.8441 0003610  17.9281 338.4191  1.86232895 11904
BEIDOU-3 M19            
1 44864U 19090A   21236.28470278 -.00000010  00000-0  00000-0 0  9999
2 44864  55.2510 121.5737 0015732 269.0393 316.1460  1.86232024 11496
BEIDOU-3 M20            
1 44865U 19090B   21236.52915793 -.00000011  00000-0  00000-0 0  9994
2 44865  55.2541 121.5966 0014456 285.1853 193.8101  1.86232037 11471
BEIDOU-3 G2             
1 45344U 20017A   21236.54738586 -.00000158  00000-0  00000+0 0  9994
2 45344   2.3450 338.6757 0004067 151.7555 119.6936  1.00271155  5643
BEIDOU-3 G3             
1 45807U 20040A   21235.40500913 -.00000374  00000-0  00000-0 0  9990
2 45807   2.1312 298.8089 0006812 338.7992 310.4275  1.00263492  4448
